start=new Date('2022-11-09T00:00:00.000Z').valueOf();
sats=[{"RCS_SIZE":"LARGE","SITE":"AFETR","EPOCH":"2022-11-08T14:49:33.173184","OBJECT_NAME":"STARLINK-3162","CLASSIFICATION_TYPE":"U","APOAPSIS":"541.716","OBJECT_ID":"2021-104D","ARG_OF_PERICENTER":"25.9460","OBJECT_TYPE":"PAYLOAD","ELEMENT_SET_NO":"999","TLE_LINE2":"2 49411  53.2154 282.7789 0002919  25.9460 334.1678 15.08855876 55039","GP_ID":"217202639","TLE_LINE1":"1 49411U 21104D   22312.61774506  .00005785  00000-0  38114-3 0  9998","INCLINATION":"53.2154","REV_AT_EPOCH":"5503","FILE":"3649076","MEAN_MOTION_DOT":"0.00005785","MEAN_MOTION":"15.08855876","NORAD_CAT_ID":"49411","PERIAPSIS":"537.678","LAUNCH_DATE":"2021-11-13","RA_OF_ASC_NODE":"282.7789","MEAN_ELEMENT_THEORY":"SGP4","PERIOD":"95.437","BSTAR":"0.00038114000000","EPHEMERIS_TYPE":"0","MEAN_MOTION_DDOT":"0.0000000000000","SEMIMAJOR_AXIS":"6917.832","TIME_SYSTEM":"UTC","MEAN_ANOMALY":"334.1678","DECAY_DATE":null,"COUNTRY_CODE":"US","ECCENTRICITY":"0.00029190","CENTER_NAME":"EARTH","REF_FRAME":"TEME"},{"MEAN_ELEMENT_THEORY":"SGP4","BSTAR":"0.00046666000000","EPHEMERIS_TYPE":"0","PERIOD":"95.436","MEAN_MOTION_DDOT":"0.0000000000000","SEMIMAJOR_AXIS":"6917.821","TIME_SYSTEM":"UTC","MEAN_MOTION":"15.08859491","MEAN_MOTION_DOT":"0.00007151","PERIAPSIS":"537.807","NORAD_CAT_ID":"49412","RA_OF_ASC_NODE":"293.9202","LAUNCH_DATE":"2021-11-13","CENTER_NAME":"EARTH","REF_FRAME":"TEME","ECCENTRICITY":"0.00027160","DECAY_DATE":null,"COUNTRY_CODE":"US","MEAN_ANOMALY":"331.6770","OBJECT_ID":"2021-104E","APOAPSIS":"541.565","ARG_OF_PERICENTER":"28.4370","ELEMENT_SET_NO":"999","OBJECT_TYPE":"PAYLOAD","RCS_SIZE":"LARGE","EPOCH":"2022-11-08T08:42:35.692704","OBJECT_NAME":"STARLINK-3144","CLASSIFICATION_TYPE":"U","SITE":"AFETR","GP_ID":"217172604","FILE":"3648805","INCLINATION":"53.2166","TLE_LINE1":"1 49412U 21104E   22312.36291311  .00007151  00000-0  46666-3 0  9999","REV_AT_EPOCH":"5486","TLE_LINE2":"2 49412  53.2166 293.9202 0002716  28.4370 331.6770 15.08859491 54862"},{"MEAN_ANOMALY":"335.1252","DECAY_DATE":null,"COUNTRY_CODE":"US","ECCENTRICITY":"0.00030700","CENTER_NAME":"EARTH","REF_FRAME":"TEME","MEAN_MOTION_DOT":"0.00002505","MEAN_MOTION":"15.08855176","NORAD_CAT_ID":"49413","PERIAPSIS":"537.575","LAUNCH_DATE":"2021-11-13","RA_OF_ASC_NODE":"282.7900","MEAN_ELEMENT_THEORY":"SGP4","PERIOD":"95.437","BSTAR":"0.00017539000000","EPHEMERIS_TYPE":"0","MEAN_MOTION_DDOT":"0.0000000000000","SEMIMAJOR_AXIS":"6917.834","TIME_SYSTEM":"UTC","TLE_LINE2":"2 49413  53.2178 282.7900 0003070  24.9888 335.1252 15.08855176 55036","GP_ID":"217203624","REV_AT_EPOCH":"5503","TLE_LINE1":"1 49413U 21104F   22312.61406435  .00002505  00000-0  17539-3 0  9998","INCLINATION":"53.2178","FILE":"3649076","RCS_SIZE":"LARGE","SITE":"AFETR","OBJECT_NAME":"STARLINK-3157","EPOCH":"2022-11-08T14:44:15.159840","CLASSIFICATION_TYPE":"U","APOAPSIS":"541.823","OBJECT_ID":"2021-104F","ARG_OF_PERICENTER":"24.9888","ELEMENT_SET_NO":"999","OBJECT_TYPE":"PAYLOAD"},{"OBJECT_ID":"2021-104G","APOAPSIS":"541.620","ARG_OF_PERICENTER":"31.9813","OBJECT_TYPE":"PAYLOAD","ELEMENT_SET_NO":"999","RCS_SIZE":"LARGE","OBJECT_NAME":"STARLINK-3146","EPOCH":"2022-11-08T16:28:55.433280","CLASSIFICATION_TYPE":"U","SITE":"AFETR","GP_ID":"217201896","FILE":"3649076","REV_AT_EPOCH":"5490","TLE_LINE1":"1 49414U 21104G   22312.68675270  .00008235  00000-0  53455-3 0  9994","INCLINATION":"53.2158","TLE_LINE2":"2 49414  53.2158 292.4606 0002811  31.9813 328.1349 15.08862753 54907","MEAN_ELEMENT_THEORY":"SGP4","BSTAR":"0.00053455000000","EPHEMERIS_TYPE":"0","PERIOD":"95.436","MEAN_MOTION_DDOT":"0.0000000000000","TIME_SYSTEM":"UTC","SEMIMAJOR_AXIS":"6917.811","MEAN_MOTION":"15.08862753","MEAN_MOTION_DOT":"0.00008235","PERIAPSIS":"537.731","NORAD_CAT_ID":"49414","RA_OF_ASC_NODE":"292.4606","LAUNCH_DATE":"2021-11-13","CENTER_NAME":"EARTH","REF_FRAME":"TEME","DECAY_DATE":null,"COUNTRY_CODE":"US","ECCENTRICITY":"0.00028110","MEAN_ANOMALY":"328.1349"},{"ARG_OF_PERICENTER":"24.9221","APOAPSIS":"541.718","OBJECT_ID":"2021-104H","ELEMENT_SET_NO":"999","OBJECT_TYPE":"PAYLOAD","RCS_SIZE":"LARGE","SITE":"AFETR","OBJECT_NAME":"STARLINK-3159","CLASSIFICATION_TYPE":"U","EPOCH":"2022-11-08T08:17:25.452672","TLE_LINE1":"1 49415U 21104H   22312.34543348  .00002454  00000-0  17220-3 0  9995","REV_AT_EPOCH":"5607","INCLINATION":"53.2171","FILE":"3648687","GP_ID":"217145785","TLE_LINE2":"2 49415  53.2171 283.9967 0002876  24.9221 335.1910 15.08845570 56074","PERIOD":"95.437","BSTAR":"0.00017220000000","EPHEMERIS_TYPE":"0","MEAN_ELEMENT_THEORY":"SGP4","TIME_SYSTEM":"UTC","SEMIMAJOR_AXIS":"6917.863","MEAN_MOTION_DDOT":"0.0000000000000","MEAN_MOTION_DOT":"0.00002454","MEAN_MOTION":"15.08845570","LAUNCH_DATE":"2021-11-13","RA_OF_ASC_NODE":"283.9967","NORAD_CAT_ID":"49415","PERIAPSIS":"537.739","REF_FRAME":"TEME","CENTER_NAME":"EARTH","MEAN_ANOMALY":"335.1910","DECAY_DATE":null,"ECCENTRICITY":"0.00028760","COUNTRY_CODE":"US"},{"OBJECT_NAME":"STARLINK-3133","EPOCH":"2022-11-08T21:04:28.587360","CLASSIFICATION_TYPE":"U","SITE":"AFETR","RCS_SIZE":"LARGE","OBJECT_TYPE":"PAYLOAD","ELEMENT_SET_NO":"999","OBJECT_ID":"2021-104J","APOAPSIS":"541.121","ARG_OF_PERICENTER":"31.1640","TLE_LINE2":"2 49416  53.2162 291.5949 0002105  31.1640 328.9477 15.08866382 54935","GP_ID":"217203391","FILE":"3649076","TLE_LINE1":"1 49416U 21104J   22312.87810865  .00009484  00000-0  61273-3 0  9992","REV_AT_EPOCH":"5493","INCLINATION":"53.2162","PERIAPSIS":"538.209","NORAD_CAT_ID":"49416","RA_OF_ASC_NODE":"291.5949","LAUNCH_DATE":"2021-11-13","MEAN_MOTION":"15.08866382","MEAN_MOTION_DOT":"0.00009484","MEAN_MOTION_DDOT":"0.0000000000000","TIME_SYSTEM":"UTC","SEMIMAJOR_AXIS":"6917.800","MEAN_ELEMENT_THEORY":"SGP4","BSTAR":"0.00061273000000","EPHEMERIS_TYPE":"0","PERIOD":"95.436","DECAY_DATE":null,"COUNTRY_CODE":"US","ECCENTRICITY":"0.00021050","MEAN_ANOMALY":"328.9477","CENTER_NAME":"EARTH","REF_FRAME":"TEME"},{"RCS_SIZE":"LARGE","SITE":"AFETR","OBJECT_NAME":"STARLINK-3154","CLASSIFICATION_TYPE":"U","EPOCH":"2022-11-08T17:44:26.070432","APOAPSIS":"541.664","OBJECT_ID":"2021-104K","ARG_OF_PERICENTER":"19.7841","ELEMENT_SET_NO":"999","OBJECT_TYPE":"PAYLOAD","TLE_LINE2":"2 49417  53.2157 282.2264 0002885  19.7841 340.3263 15.08865137 55048","GP_ID":"217203131","REV_AT_EPOCH":"5504","TLE_LINE1":"1 49417U 21104K   22312.73919063  .00005793  00000-0  38153-3 0  9998","INCLINATION":"53.2157","FILE":"3649076","MEAN_MOTION_DOT":"0.00005793","MEAN_MOTION":"15.08865137","NORAD_CAT_ID":"49417","PERIAPSIS":"537.673","LAUNCH_DATE":"2021-11-13","RA_OF_ASC_NODE":"282.2264","MEAN_ELEMENT_THEORY":"SGP4","PERIOD":"95.436","BSTAR":"0.00038153000000","EPHEMERIS_TYPE":"0","MEAN_MOTION_DDOT":"0.0000000000000","TIME_SYSTEM":"UTC","SEMIMAJOR_AXIS":"6917.804","MEAN_ANOMALY":"340.3263","DECAY_DATE":null,"COUNTRY_CODE":"US","ECCENTRICITY":"0.00028850","CENTER_NAME":"EARTH","REF_FRAME":"TEME"},{"SEMIMAJOR_AXIS":"6917.891","TIME_SYSTEM":"UTC","MEAN_MOTION_DDOT":"0.0000000000000","EPHEMERIS_TYPE":"0","BSTAR":"0.00020970000000","PERIOD":"95.438","MEAN_ELEMENT_THEORY":"SGP4","RA_OF_ASC_NODE":"292.5176","LAUNCH_DATE":"2021-11-13","PERIAPSIS":"537.695","NORAD_CAT_ID":"49418","MEAN_MOTION":"15.08836597","MEAN_MOTION_DOT":"0.00003050","REF_FRAME":"TEME","CENTER_NAME":"EARTH","COUNTRY_CODE":"US","DECAY_DATE":null,"ECCENTRICITY":"0.00029790","MEAN_ANOMALY":"334.2077","OBJECT_TYPE":"PAYLOAD","ELEMENT_SET_NO":"999","ARG_OF_PERICENTER":"25.9064","OBJECT_ID":"2021-104L","APOAPSIS":"541.817","EPOCH":"2022-11-08T16:13:02.955360","OBJECT_NAME":"STARLINK-3111","CLASSIFICATION_TYPE":"U","SITE":"AFETR","RCS_SIZE":"LARGE","FILE":"3649076","INCLINATION":"53.2175","TLE_LINE1":"1 49418U 21104L   22312.67572865  .00003050  00000-0  20970-3 0  9999","REV_AT_EPOCH":"5489","GP_ID":"217202390","TLE_LINE2":"2 49418  53.2175 292.5176 0002979  25.9064 334.2077 15.08836597 54890"},{"RCS_SIZE":"LARGE","OBJECT_NAME":"STARLINK-3120","EPOCH":"2022-11-08T08:00:12.132864","CLASSIFICATION_TYPE":"U","SITE":"AFETR","ARG_OF_PERICENTER":"27.8751","OBJECT_ID":"2021-104M","APOAPSIS":"541.734","ELEMENT_SET_NO":"999","OBJECT_TYPE":"PAYLOAD","TLE_LINE2":"2 49419  53.2171 294.0573 0002903  27.8751 332.2396 15.08846356 54847","FILE":"3648805","TLE_LINE1":"1 49419U 21104M   22312.33347376  .00003392  00000-0  23112-3 0  9990","REV_AT_EPOCH":"5484","INCLINATION":"53.2171","GP_ID":"217171355","MEAN_MOTION":"15.08846356","MEAN_MOTION_DOT":"0.00003392","RA_OF_ASC_NODE":"294.0573","LAUNCH_DATE":"2021-11-13","PERIAPSIS":"537.718","NORAD_CAT_ID":"49419","BSTAR":"0.00023112000000","EPHEMERIS_TYPE":"0","PERIOD":"95.437","MEAN_ELEMENT_THEORY":"SGP4","SEMIMAJOR_AXIS":"6917.861","TIME_SYSTEM":"UTC","MEAN_MOTION_DDOT":"0.0000000000000","COUNTRY_CODE":"US","DECAY_DATE":null,"ECCENTRICITY":"0.00029030","MEAN_ANOMALY":"332.2396","REF_FRAME":"TEME","CENTER_NAME":"EARTH"},{"CENTER_NAME":"EARTH","REF_FRAME":"TEME","MEAN_ANOMALY":"323.8643","DECAY_DATE":null,"ECCENTRICITY":"0.00023970","COUNTRY_CODE":"US","MEAN_MOTION_DDOT":"0.0000000000000","SEMIMAJOR_AXIS":"6917.824","TIME_SYSTEM":"UTC","MEAN_ELEMENT_THEORY":"SGP4","PERIOD":"95.436","BSTAR":"0.00024128000000","EPHEMERIS_TYPE":"0","NORAD_CAT_ID":"49420","PERIAPSIS":"538.031","LAUNCH_DATE":"2021-11-13","RA_OF_ASC_NODE":"292.5269","MEAN_MOTION_DOT":"0.00003556","MEAN_MOTION":"15.08858388","GP_ID":"217202898","INCLINATION":"53.2179","TLE_LINE1":"1 49420U 21104N   22312.67202071  .00003556  00000-0  24128-3 0  9991","REV_AT_EPOCH":"5489","FILE":"3649076","TLE_LINE2":"2 49420  53.2179 292.5269 0002397  36.2511 323.8643 15.08858388 54891","OBJECT_TYPE":"PAYLOAD","ELEMENT_SET_NO":"999","APOAPSIS":"541.347","OBJECT_ID":"2021-104N","ARG_OF_PERICENTER":"36.2511","SITE":"AFETR","CLASSIFICATION_TYPE":"U","OBJECT_NAME":"STARLINK-3110","EPOCH":"2022-11-08T16:07:42.589344","RCS_SIZE":"LARGE"}];
